0 IRIDIUM 17
1 24870U 97034B   13281.42026488  .00000271  00000-0  88104-4 0  5028
2 24870 086.3993 224.5707 0002159 097.3796 042.2131 14.35017075850825
0 IRIDIUM 17
1 24870U 97034B   13282.46416620  .00000285  00000-0  93363-4 0  5033
2 24870 086.3994 224.1341 0002141 097.3774 031.6615 14.35019028850978
0 IRIDIUM 17
1 24870U 97034B   13282.46416620  .00000285  00000-0  93363-4 0  5044
2 24870 086.3994 224.1341 0002141 097.3774 031.6615 14.35019028850978
0 IRIDIUM 17
1 24870U 97034B   13283.44225403  .00000273  00000-0  89121-4 0  5055
2 24870 086.3996 223.7251 0002129 097.4191 041.2898 14.35019599851115
0 IRIDIUM 17
1 24870U 97034B   13284.41512045  .00000282  00000-0  92214-4 0  5062
2 24870 086.3998 223.3182 0002115 097.5269 023.8977 14.35020043851253
0 IRIDIUM 17
1 24870U 97034B   13285.46403590  .00000247  00000-0  79731-4 0  5073
2 24870 086.4000 222.8795 0002097 097.7807 038.9884 14.35020508851408
0 IRIDIUM 17
1 24870U 97034B   13286.44063796  .00000263  00000-0  85409-4 0  5080
2 24870 086.4002 222.4710 0002084 097.7225 041.0533 14.35020843851546
0 IRIDIUM 17
1 24870U 97034B   13287.41691024  .00000295  00000-0  96565-4 0  5090
2 24870 086.4004 222.0628 0002073 097.7786 041.3026 14.35021297851681
0 IRIDIUM 17
1 24870U 97034B   13288.46224096  .00000411  00000-0  13739-3 0  5100
2 24870 086.4005 221.6257 0002059 097.6755 038.2498 14.35022391851835
0 IRIDIUM 17
1 24870U 97034B   13289.43706358  .00000333  00000-0  10996-3 0  5110
2 24870 086.4006 221.2181 0002040 098.2767 030.4754 14.35023478851979
0 IRIDIUM 17
1 24870U 97034B   13290.41520563  .00000382  00000-0  12718-3 0  5121
2 24870 086.4006 220.8092 0002032 098.2737 040.4461 14.35024035852116
0 IRIDIUM 17
1 24870U 97034B   13291.39153184  .00000378  00000-0  12595-3 0  5139
2 24870 086.4007 220.4011 0002019 098.4605 040.8544 14.35024668852258
0 IRIDIUM 17
1 24870U 97034B   13292.43698755  .00000389  00000-0  12974-3 0  5147
2 24870 086.4006 219.9641 0002010 098.8667 037.9489 14.35025305852403
0 IRIDIUM 17
1 24870U 97034B   13293.41345471  .00000401  00000-0  13396-3 0  5155
2 24870 086.4006 219.5560 0002006 099.1292 039.0136 14.35026140852547
0 IRIDIUM 17
1 24870U 97034B   13294.32296803  .00000380  00000-0  12638-3 0  5165
2 24870 086.4006 219.1758 0002000 099.1964 054.6046 14.35026998852670
0 IRIDIUM 17
1 24870U 97034B   13295.36180927  .00000412  00000-0  13784-3 0  5179
2 24870 086.4007 218.7416 0001993 099.5056 017.6552 14.35028041852822
